[{"OBJECT_NAME":"YAOGAN-19","OBJECT_ID":"2013-065A","EPOCH":"2026-03-09T22:04:30.738144","MEAN_MOTION":13.15578826,"ECCENTRICITY":0.00090241,"INCLINATION":100.1035,"RA_OF_ASC_NODE":49.7884,"ARG_OF_PERICENTER":320.185,"MEAN_ANOMALY":39.8601,"EPHEMERIS_TYPE":0,"CLASSIFICATION_TYPE":"U","NORAD_CAT_ID":39410,"ELEMENT_SET_NO":999,"REV_AT_EPOCH":59059,"BSTAR":0.00094809629,"MEAN_MOTION_DOT":3.15e-6,"MEAN_MOTION_DDOT":0},{"OBJECT_NAME":"ONEWEB-0640","OBJECT_ID":"2023-029J","EPOCH":"2026-03-09T16:31:07.379904","MEAN_MOTION":13.14502531,"ECCENTRICITY":0.00011615,"INCLINATION":87.8979,"RA_OF_ASC_NODE":309.6053,"ARG_OF_PERICENTER":106.0902,"MEAN_ANOMALY":254.0356,"EPHEMERIS_TYPE":0,"CLASSIFICATION_TYPE":"U","NORAD_CAT_ID":55804,"ELEMENT_SET_NO":999,"REV_AT_EPOCH":14634,"BSTAR":-0.00046339012,"MEAN_MOTION_DOT":-1.59e-6,"MEAN_MOTION_DDOT":0}]
